OBJECT B                
1 51825U 22019B   25133.91102433  .00020411  00000+0  52161-3 0  9997
2 51825  97.3864 210.2958 0011948 141.9174 218.2918 15.39416405177797
